NORAD_CAT_ID,OBJECT_NAME,OBJECT_TYPE,EPOCH,MEAN_MOTION,ECCENTRICITY,INCLINATION,RA_OF_ASC_NODE,ARG_OF_PERICENTER,MEAN_ANOMALY,BSTAR,MEAN_MOTION_DOT,MEAN_MOTION_DDOT,TLE_LINE0,TLE_LINE1,TLE_LINE2,SEMIMAJOR_AXIS,PERIOD,APOGEE,PERIGEE,DECAYED
52344.0,STARLINK-3851,PAYLOAD,2024-02-02 06:01:11,15.08847073,0.0001819,53.2178,39.8625,102.0906,258.029,3.5015e-06,-2.32e-06,0.0,0 STARLINK-3851,1 52344U 22045P   24033.25082864 -.00000232  00000-0  35015-5 0  9995,2 52344  53.2178  39.8625 0001819 102.0906 258.0290 15.08847073100073,6917.859,95.437,540.982,538.465,0.0
52344.0,STARLINK-3851,PAYLOAD,2024-02-03 04:16:35,15.08842787,0.0001766,53.2185,35.6995,102.5612,257.5578,4.8138e-05,4.78e-06,0.0,0 STARLINK-3851,1 52344U 22045P   24034.17819227  .00000478  00000-0  48138-4 0  9998,2 52344  53.2185  35.6995 0001766 102.5612 257.5578 15.08842787100211,6917.872,95.437,540.959,538.515,0.0
52344.0,STARLINK-3851,PAYLOAD,2024-02-03 09:02:44,15.08847465,0.0001755,53.2184,34.8074,101.2197,258.8993,7.9511e-05,9.78e-06,0.0,0 STARLINK-3851,1 52344U 22045P   24034.37690831  .00000978  00000-0  79511-4 0  9992,2 52344  53.2184  34.8074 0001755 101.2197 258.8993 15.08847465100247,6917.858,95.437,540.937,538.508,0.0
52344.0,STARLINK-3851,PAYLOAD,2024-02-04 08:53:31,15.0885218,0.0001851,53.2184,30.3486,105.1019,255.0178,3.9942e-05,3.48e-06,0.0,0 STARLINK-3851,1 52344U 22045P   24035.37050447  .00000348  00000-0  39942-4 0  9991,2 52344  53.2184  30.3486 0001851 105.1019 255.0178 15.08852180100398,6917.843,95.437,540.989,538.428,0.0
52344.0,STARLINK-3851,PAYLOAD,2024-02-04 23:12:00,15.08841823,0.0001671,53.2181,27.6726,105.0195,255.0982,1.4793e-05,-5.3e-07,0.0,0 STARLINK-3851,1 52344U 22045P   24035.96667171 -.00000053  00000-0  14793-4 0  9995,2 52344  53.2181  27.6726 0001671 105.0195 255.0982 15.08841823100480,6917.875,95.437,540.896,538.584,0.0
52344.0,STARLINK-3851,PAYLOAD,2024-02-05 03:58:09,15.08842225,0.0001702,53.2183,26.7811,99.1266,260.9919,3.5088e-05,2.7e-06,0.0,0 STARLINK-3851,1 52344U 22045P   24036.16539069  .00000270  00000-0  35088-4 0  9992,2 52344  53.2183  26.7811 0001702  99.1266 260.9919 15.08842225100510,6917.874,95.437,540.916,538.561,0.0
52344.0,STARLINK-3851,PAYLOAD,2024-02-05 05:33:32,15.0884417,0.0001701,53.218,26.4839,96.7468,263.3718,4.8599e-05,4.86e-06,0.0,0 STARLINK-3851,1 52344U 22045P   24036.23162930  .00000486  00000-0  48599-4 0  9999,2 52344  53.2180  26.4839 0001701  96.7468 263.3718 15.08844170100526,6917.868,95.437,540.909,538.556,0.0
52344.0,STARLINK-3851,PAYLOAD,2024-02-06 05:24:19,15.08847455,0.000163,53.2179,22.0232,98.0225,262.0953,7.3961e-05,8.89e-06,0.0,0 STARLINK-3851,1 52344U 22045P   24037.22522556  .00000889  00000-0  73961-4 0  9991,2 52344  53.2179  22.0232 0001630  98.0225 262.0953 15.08847455100672,6917.858,95.437,540.85,538.595,0.0
52344.0,STARLINK-3851,PAYLOAD,2024-02-07 03:39:44,15.08838639,0.0002157,53.2199,17.8611,127.1563,232.9626,-2.8137e-06,-3.33e-06,0.0,0 STARLINK-3851,1 52344U 22045P   24038.15259358 -.00000333  00000-0 -28137-5 0  9993,2 52344  53.2199  17.8611 0002157 127.1563 232.9626 15.08838639100814,6917.885,95.438,541.242,538.257,0.0
52344.0,STARLINK-3851,PAYLOAD,2024-02-07 08:25:53,15.08839655,0.0001601,53.2182,16.9671,100.33,259.7872,3.2112e-05,2.23e-06,0.0,0 STARLINK-3851,1 52344U 22045P   24038.35131402  .00000223  00000-0  32112-4 0  9997,2 52344  53.2182  16.9671 0001601 100.3300 259.7872 15.08839655100849,6917.881,95.438,540.854,538.639,0.0
52344.0,STARLINK-3851,PAYLOAD,2024-02-08 08:16:40,15.08848888,0.0001439,53.2174,12.5063,76.0764,284.0388,0.00017451,2.491e-05,0.0,0 STARLINK-3851,1 52344U 22045P   24039.34491179  .00002491  00000-0  17451-3 0  9994,2 52344  53.2174  12.5063 0001439  76.0764 284.0388 15.08848888100996,6917.853,95.437,540.714,538.723,0.0
52344.0,STARLINK-3851,PAYLOAD,2024-02-08 22:35:09,15.08835843,0.0001181,53.217,9.8305,95.1023,265.0104,5.5646e-05,5.98e-06,0.0,0 STARLINK-3851,1 52344U 22045P   24039.94107868  .00000598  00000-0  55646-4 0  9994,2 52344  53.2170   9.8305 0001181  95.1023 265.0104 15.08835843101087,6917.893,95.438,540.575,538.941,0.0
52344.0,STARLINK-3851,PAYLOAD,2024-02-09 03:21:18,15.08843111,0.0001654,53.2175,8.9374,106.464,253.6534,0.0001415,1.965e-05,0.0,0 STARLINK-3851,1 52344U 22045P   24040.13979457  .00001965  00000-0  14150-3 0  9991,2 52344  53.2175   8.9374 0001654 106.4640 253.6534 15.08843111101115,6917.871,95.437,540.88,538.592,0.0
52344.0,STARLINK-3851,PAYLOAD,2024-02-09 04:56:41,15.08846016,0.0001716,53.2181,8.6398,110.5208,249.5968,0.00017824,2.55e-05,0.0,0 STARLINK-3851,1 52344U 22045P   24040.20603285  .00002550  00000-0  17824-3 0  9994,2 52344  53.2181   8.6398 0001716 110.5208 249.5968 15.08846016101123,6917.862,95.437,540.914,538.54,0.0
52344.0,STARLINK-3851,PAYLOAD,2024-02-10 03:12:05,15.08841172,0.0001553,53.2183,4.4785,97.9636,262.1533,-4.7771e-05,-1.048e-05,0.0,0 STARLINK-3851,1 52344U 22045P   24041.13339556 -.00001048  00000-0 -47771-4 0  9992,2 52344  53.2183   4.4785 0001553  97.9636 262.1533 15.08841172101263,6917.877,95.437,540.816,538.667,0.0
52344.0,STARLINK-3851,PAYLOAD,2024-02-10 07:58:14,15.08846379,0.0001448,53.218,3.5857,91.5828,268.533,5.1319e-05,5.29e-06,0.0,0 STARLINK-3851,1 52344U 22045P   24041.33211349  .00000529  00000-0  51319-4 0  9997,2 52344  53.2180   3.5857 0001448  91.5828 268.5330 15.08846379101298,6917.861,95.437,540.728,538.724,0.0
52344.0,STARLINK-3851,PAYLOAD,2024-02-11 06:13:38,15.08846786,0.0001598,53.2193,359.4204,93.3604,266.7571,0.00011819,1.594e-05,0.0,0 STARLINK-3851,1 52344U 22045P   24042.25947461  .00001594  00000-0  11819-3 0  9993,2 52344  53.2193 359.4204 0001598  93.3604 266.7571 15.08846786101434,6917.86,95.437,540.83,538.619,0.0
52344.0,STARLINK-3851,PAYLOAD,2024-02-12 02:53:39,15.08844035,0.0001782,53.2192,355.5605,72.8934,287.2253,0.00014204,1.973e-05,0.0,0 STARLINK-3851,1 52344U 22045P   24043.12059865  .00001973  00000-0  14204-3 0  9994,2 52344  53.2192 355.5605 0001782  72.8934 287.2253 15.08844035101562,6917.868,95.437,540.966,538.5,0.0
52344.0,STARLINK-3851,PAYLOAD,2024-02-12 06:04:25,15.08860177,0.0001592,53.2194,354.96,75.3783,284.7386,0.00038872,5.907e-05,0.0,0 STARLINK-3851,1 52344U 22045P   24043.25307040  .00005907  00000-0  38872-3 0  9997,2 52344  53.2194 354.9600 0001592  75.3783 284.7386 15.08860177101587,6917.819,95.436,540.785,538.582,0.0
52344.0,STARLINK-3851,PAYLOAD,2024-02-12 20:22:54,15.08834054,0.0001165,53.2198,352.2869,79.6145,280.4979,1.4612e-05,-5.5e-07,0.0,0 STARLINK-3851,1 52344U 22045P   24043.84924274 -.00000055  00000-0  14612-4 0  9993,2 52344  53.2198 352.2869 0001165  79.6145 280.4979 15.08834054101670,6917.899,95.438,540.569,538.958,0.0
52344.0,STARLINK-3851,PAYLOAD,2024-02-13 02:44:26,15.08842459,0.0001625,53.2183,351.0972,114.5651,245.5511,-1.8334e-05,-5.8e-06,0.0,0 STARLINK-3851,1 52344U 22045P   24044.11419520 -.00000580  00000-0 -18334-4 0  9996,2 52344  53.2183 351.0972 0001625 114.5651 245.5511 15.08842459101715,6917.873,95.437,540.862,538.614,0.0
52344.0,STARLINK-3851,PAYLOAD,2024-02-13 13:52:09,15.08834807,0.0001555,53.2198,349.0157,91.1575,268.9595,-8.2384e-06,-4.19e-06,0.0,0 STARLINK-3851,1 52344U 22045P   24044.57788286 -.00000419  00000-0 -82384-5 0  9992,2 52344  53.2198 349.0157 0001555  91.1575 268.9595 15.08834807101786,6917.896,95.438,540.837,538.686,0.0
52344.0,STARLINK-3851,PAYLOAD,2024-02-13 20:13:41,15.08840932,0.0001379,53.2185,347.8269,87.7012,272.4138,-0.00012981,-2.353e-05,0.0,0 STARLINK-3851,1 52344U 22045P   24044.84284051 -.00002353  00000-0 -12981-3 0  9996,2 52344  53.2185 347.8269 0001379  87.7012 272.4138 15.08840932101827,6917.878,95.437,540.697,538.789,0.0
52344.0,STARLINK-3851,PAYLOAD,2024-02-14 05:46:00,15.08841739,0.0001306,53.2181,346.0419,97.0669,263.0471,-4.1114e-05,-9.42e-06,0.0,0 STARLINK-3851,1 52344U 22045P   24045.24028027 -.00000942  00000-0 -41114-4 0  9993,2 52344  53.2181 346.0419 0001306  97.0669 263.0471 15.08841739101881,6917.875,95.437,540.644,538.837,0.0
52344.0,STARLINK-3851,PAYLOAD,2024-02-15 05:36:47,15.08844352,0.00014,53.2185,341.5796,95.758,264.3572,0.00030877,4.63e-05,0.0,0 STARLINK-3851,1 52344U 22045P   24046.23388667  .00004630  00000-0  30877-3 0  9991,2 52344  53.2185 341.5796 0001400  95.7580 264.3572 15.08844352102033,6917.867,95.437,540.701,538.764,0.0
52344.0,STARLINK-3851,PAYLOAD,2024-02-15 19:55:16,15.08840112,0.0001369,53.2182,338.9059,90.6675,269.4474,0.00023594,3.469e-05,0.0,0 STARLINK-3851,1 52344U 22045P   24046.83005021  .00003469  00000-0  23594-3 0  9994,2 52344  53.2182 338.9059 0001369  90.6675 269.4474 15.08840112102122,6917.88,95.438,540.692,538.798,0.0
52344.0,STARLINK-3851,PAYLOAD,2024-02-16 11:49:06,15.08858824,0.0001281,53.2188,335.9307,94.5313,265.5825,0.00045815,7.015e-05,0.0,0 STARLINK-3851,1 52344U 22045P   24047.49244050  .00007015  00000-0  45815-3 0  9995,2 52344  53.2188 335.9307 0001281  94.5313 265.5825 15.08858824102223,6917.823,95.436,540.574,538.802,0.0
52344.0,STARLINK-3851,PAYLOAD,2024-02-16 19:46:02,15.08864323,0.0001275,53.2186,334.446,91.8814,268.2325,0.00035238,5.328e-05,0.0,0 STARLINK-3851,1 52344U 22045P   24047.82363520  .00005328  00000-0  35238-3 0  9999,2 52344  53.2186 334.4460 0001275  91.8814 268.2325 15.08864323102275,6917.806,95.436,540.553,538.789,0.0
52344.0,STARLINK-3851,PAYLOAD,2024-02-17 11:39:52,15.08873793,0.000129,53.218,331.4716,55.8627,304.2487,0.00032176,4.841e-05,0.0,0 STARLINK-3851,1 52344U 22045P   24048.48602334  .00004841  00000-0  32176-3 0  9998,2 52344  53.2180 331.4716 0001290  55.8627 304.2487 15.08873793102371,6917.777,95.435,540.534,538.75,0.0
52344.0,STARLINK-3851,PAYLOAD,2024-02-17 19:36:49,15.08826356,0.0001522,53.2191,329.9886,97.6864,262.4301,-0.00080194,-0.00013023,0.0,0 STARLINK-3851,1 52344U 22045P   24048.81723453 -.00013023  00000-0 -80194-3 0  9998,2 52344  53.2191 329.9886 0001522  97.6864 262.4301 15.08826356102427,6917.922,95.438,540.84,538.734,0.0
